{
  "norad_id": 58847,
  "name": "STARLINK-31262",
  "history": [
    {
      "epoch": "2026-03-28T17:57:03.133152Z",
      "apogee_km": 475.9318102657526,
      "perigee_km": 474.46725224902275,
      "latitude_deg": -9.110535518994376e-06,
      "longitude_deg": 110.02818649644239,
      "height_km": 476.00462673048247,
      "semi_major_axis_km": 6853.336531257387,
      "eccentricity": 0.00010685,
      "inclination_deg": 53.1573,
      "raan_deg": 205.4552,
      "arg_perigee_deg": 82.7053,
      "mean_anomaly_deg": 277.4069,
      "mean_motion_rev_day": 15.30205204
    }
  ]
}