{"fetched_at":"2026-03-29T16:36:15Z","count":15609,"tles":[{"name":"STARLINK-31262","line1":"1 58847U 24017X   26087.74795293  .00012621  00000+0  43745-3 0  9992","line2":"2 58847  53.1573 205.4552 0001068  82.7053 277.4069 15.30205204121697","category":"Starlink"}]}